{"type": "FeatureCollection", "features": [ {"type": "Feature", "properties": {"norad_id": 37438, "name": "FENGYUN 1C DEB", "group": "fengyun-1c-debris", "lat": 20.465588896559293, "lon": -141.95751567669438, "alt_km": 823.2204592924463, "timestamp": "2025-12-21T22:41:41.749226+00:00", "meta": {"OBJECT_NAME": "FENGYUN 1C DEB", "OBJECT_ID": "1999-025EHG", "EPOCH": "2025-12-21T08:22:21.632736", "MEAN_MOTION": 14.15537452, "ECCENTRICITY": 0.00292539, "INCLINATION": 98.7396, "RA_OF_ASC_NODE": 34.1665, "ARG_OF_PERICENTER": 196.5501, "MEAN_ANOMALY": 163.4721, "EPHEMERIS_TYPE": 0, "CLASSIFICATION_TYPE": "U", "NORAD_CAT_ID": 37438, "ELEMENT_SET_NO": 999, "REV_AT_EPOCH": 60257, "BSTAR": 0.00052675436, "MEAN_MOTION_DOT": 9.91e-06, "MEAN_MOTION_DDOT": 0}, "tle": {"line1": "1 37438U 99025EHG 25355.34886149  .00000991  00000+0  52675-3 0  9999", "line2": "2 37438  98.7396  34.1665 0029253 196.5501 163.4721 14.15537452602573"}}, "geometry": {"type": "Point", "coordinates": [-141.95751567669438, 20.465588896559293]}}, {"type": "Feature", "properties": {"norad_id": 37441, "name": "FENGYUN 1C DEB", "group": "fengyun-1c-debris", "lat": 2.1054649442131765, "lon": -158.7614133648439, "alt_km": 872.1966791287787, "timestamp": "2025-12-21T22:41:41.749236+00:00", "meta": {"OBJECT_NAME": "FENGYUN 1C DEB", "OBJECT_ID": "1999-025EHK", "EPOCH": "2025-12-20T19:16:48.855936", "MEAN_MOTION": 13.14245477, "ECCENTRICITY": 0.05088557, "INCLINATION": 99.146, "RA_OF_ASC_NODE": 200.5877, "ARG_OF_PERICENTER": 35.6, "MEAN_ANOMALY": 327.7968, "EPHEMERIS_TYPE": 0, "CLASSIFICATION_TYPE": "U", "NORAD_CAT_ID": 37441, "ELEMENT_SET_NO": 999, "REV_AT_EPOCH": 82278, "BSTAR": 0.001561327, "MEAN_MOTION_DOT": 1.077e-05, "MEAN_MOTION_DDOT": 0}, "tle": {"line1": "1 37441U 99025EHK 25354.80334324  .00001077  00000+0  15613-2 0  9992", "line2": "2 37441  99.1460 200.5877 0508855  35.6000 327.7968 13.14245477822781"}}, "geometry": {"type": "Point", "coordinates": [-158.7614133648439, 2.1054649442131765]}}, {"type": "Feature", "properties": {"norad_id": 37444, "name": "FENGYUN 1C DEB", "group": "fengyun-1c-debris", "lat": -58.582349831108516, "lon": 92.34256149562876, "alt_km": 576.4629890926717, "timestamp": "2025-12-21T22:41:41.749246+00:00", "meta": {"OBJECT_NAME": "FENGYUN 1C DEB", "OBJECT_ID": "1999-025EHN", "EPOCH": "2025-12-21T11:21:00.470304", "MEAN_MOTION": 14.48079135, "ECCENTRICITY": 0.02444203, "INCLINATION": 99.0824, "RA_OF_ASC_NODE": 76.6527, "ARG_OF_PERICENTER": 322.9356, "MEAN_ANOMALY": 35.5167, "EPHEMERIS_TYPE": 0, "CLASSIFICATION_TYPE": "U", "NORAD_CAT_ID": 37444, "ELEMENT_SET_NO": 999, "REV_AT_EPOCH": 65277, "BSTAR": 0.00044204113, "MEAN_MOTION_DOT": 2.332e-05, "MEAN_MOTION_DDOT": 0}, "tle": {"line1": "1 37444U 99025EHN 25355.47292211  .00002332  00000+0  44204-3 0  9991", "line2": "2 37444  99.0824  76.6527 0244420 322.9356  35.5167 14.48079135652771"}}, "geometry": {"type": "Point", "coordinates": [92.34256149562876, -58.582349831108516]}}, {"type": "Feature", "properties": {"norad_id": 37448, "name": "FENGYUN 1C DEB", "group": "fengyun-1c-debris", "lat": -44.072104873005756, "lon": 69.68722461672628, "alt_km": 895.0177293497891, "timestamp": "2025-12-21T22:41:41.749256+00:00", "meta": {"OBJECT_NAME": "FENGYUN 1C DEB", "OBJECT_ID": "1999-025EHS", "EPOCH": "2025-12-17T09:50:38.631840", "MEAN_MOTION": 13.87103686, "ECCENTRICITY": 0.03062777, "INCLINATION": 99.3197, "RA_OF_ASC_NODE": 56.012, "ARG_OF_PERICENTER": 46.1638, "MEAN_ANOMALY": 316.4401, "EPHEMERIS_TYPE": 0, "CLASSIFICATION_TYPE": "U", "NORAD_CAT_ID": 37448, "ELEMENT_SET_NO": 999, "REV_AT_EPOCH": 62440, "BSTAR": 0.0010911098, "MEAN_MOTION_DOT": 1.811e-05, "MEAN_MOTION_DDOT": 0}, "tle": {"line1": "1 37448U 99025EHS 25351.41016935  .00001811  00000+0  10911-2 0  9990", "line2": "2 37448  99.3197  56.0120 0306277  46.1638 316.4401 13.87103686624401"}}, "geometry": {"type": "Point", "coordinates": [69.68722461672628, -44.072104873005756]}}, {"type": "Feature", "properties": {"norad_id": 37460, "name": "FENGYUN 1C DEB", "group": "fengyun-1c-debris", "lat": 81.56214670931631, "lon": 88.3041677244536, "alt_km": 764.2035638047137, "timestamp": "2025-12-21T22:41:41.749266+00:00", "meta": {"OBJECT_NAME": "FENGYUN 1C DEB", "OBJECT_ID": "1999-025EJE", "EPOCH": "2025-12-08T10:53:05.307360", "MEAN_MOTION": 14.47840336, "ECCENTRICITY": 0.00565903, "INCLINATION": 98.3779, "RA_OF_ASC_NODE": 158.3686, "ARG_OF_PERICENTER": 303.3518, "MEAN_ANOMALY": 56.2265, "EPHEMERIS_TYPE": 0, "CLASSIFICATION_TYPE": "U", "NORAD_CAT_ID": 37460, "ELEMENT_SET_NO": 999, "REV_AT_EPOCH": 82427, "BSTAR": 0.0027403859, "MEAN_MOTION_DOT": 0.00010316, "MEAN_MOTION_DDOT": 0}, "tle": {"line1": "1 37460U 99025EJE 25342.45353365  .00010316  00000+0  27404-2 0  9994", "line2": "2 37460  98.3779 158.3686 0056590 303.3518  56.2265 14.47840336824279"}}, "geometry": {"type": "Point", "coordinates": [88.3041677244536, 81.56214670931631]}}, {"type": "Feature", "properties": {"norad_id": 37461, "name": "FENGYUN 1C DEB", "group": "fengyun-1c-debris", "lat": 1.8166683561961015, "lon": -117.27281561300578, "alt_km": 1028.3947401412288, "timestamp": "2025-12-21T22:41:41.749276+00:00", "meta": {"OBJECT_NAME": "FENGYUN 1C DEB", "OBJECT_ID": "1999-025EJF", "EPOCH": "2025-11-27T22:25:56.122176", "MEAN_MOTION": 12.7907076, "ECCENTRICITY": 0.0667413, "INCLINATION": 99.8664, "RA_OF_ASC_NODE": 221.8984, "ARG_OF_PERICENTER": 359.7811, "MEAN_ANOMALY": 0.291, "EPHEMERIS_TYPE": 0, "CLASSIFICATION_TYPE": "U", "NORAD_CAT_ID": 37461, "ELEMENT_SET_NO": 999, "REV_AT_EPOCH": 51845, "BSTAR": 0.0053613, "MEAN_MOTION_DOT": 3.048e-05, "MEAN_MOTION_DDOT": 0}, "tle": {"line1": "1 37461U 99025EJF 25331.93467734  .00003048  00000+0  53613-2 0  9997", "line2": "2 37461  99.8664 221.8984 0667413 359.7811   0.2910 12.79070760518454"}}, "geometry": {"type": "Point", "coordinates": [-117.27281561300578, 1.8166683561961015]}}, {"type": "Feature", "properties": {"norad_id": 37464, "name": "FENGYUN 1C DEB", "group": "fengyun-1c-debris", "lat": -12.199894697456184, "lon": 99.72480967618445, "alt_km": 1103.8184930317175, "timestamp": "2025-12-21T22:41:41.749286+00:00", "meta": {"OBJECT_NAME": "FENGYUN 1C DEB", "OBJECT_ID": "1999-025EJJ", "EPOCH": "2025-12-21T00:24:09.973440", "MEAN_MOTION": 13.46950437, "ECCENTRICITY": 0.04535226, "INCLINATION": 102.7158, "RA_OF_ASC_NODE": 281.3432, "ARG_OF_PERICENTER": 99.0927, "MEAN_ANOMALY": 266.1783, "EPHEMERIS_TYPE": 0, "CLASSIFICATION_TYPE": "U", "NORAD_CAT_ID": 37464, "ELEMENT_SET_NO": 999, "REV_AT_EPOCH": 61033, "BSTAR": 0.0023945622, "MEAN_MOTION_DOT": 2.662e-05, "MEAN_MOTION_DDOT": 0}, "tle": {"line1": "1 37464U 99025EJJ 25355.01678210  .00002662  00000+0  23946-2 0  9995", "line2": "2 37464 102.7158 281.3432 0453522  99.0927 266.1783 13.46950437610338"}}, "geometry": {"type": "Point", "coordinates": [99.72480967618445, -12.199894697456184]}}, {"type": "Feature", "properties": {"norad_id": 37470, "name": "FENGYUN 1C DEB", "group": "fengyun-1c-debris", "lat": -81.2927477184605, "lon": -124.82360254586045, "alt_km": 566.4889775352467, "timestamp": "2025-12-21T22:41:41.749307+00:00", "meta": {"OBJECT_NAME": "FENGYUN 1C DEB", "OBJECT_ID": "1999-025EJQ", "EPOCH": "2025-12-21T08:42:43.855776", "MEAN_MOTION": 15.02334944, "ECCENTRICITY": 6.369e-05, "INCLINATION": 98.6721, "RA_OF_ASC_NODE": 139.7885, "ARG_OF_PERICENTER": 314.2023, "MEAN_ANOMALY": 45.9147, "EPHEMERIS_TYPE": 0, "CLASSIFICATION_TYPE": "U", "NORAD_CAT_ID": 37470, "ELEMENT_SET_NO": 999, "REV_AT_EPOCH": 65591, "BSTAR": 0.0043712227, "MEAN_MOTION_DOT": 0.00058172, "MEAN_MOTION_DDOT": 0}, "tle": {"line1": "1 37470U 99025EJQ 25355.36300759  .00058172  00000+0  43712-2 0  9990", "line2": "2 37470  98.6721 139.7885 0000636 314.2023  45.9147 15.02334944655918"}}, "geometry": {"type": "Point", "coordinates": [-124.82360254586045, -81.2927477184605]}}, {"type": "Feature", "properties": {"norad_id": 37474, "name": "FENGYUN 1C DEB", "group": "fengyun-1c-debris", "lat": 51.17458057776123, "lon": -169.2568890693532, "alt_km": 584.5678437987153, "timestamp": "2025-12-21T22:41:41.749318+00:00", "meta": {"OBJECT_NAME": "FENGYUN 1C DEB", "OBJECT_ID": "1999-025EJU", "EPOCH": "2025-12-21T07:48:38.082528", "MEAN_MOTION": 14.75262893, "ECCENTRICITY": 0.01320056, "INCLINATION": 99.1647, "RA_OF_ASC_NODE": 201.6138, "ARG_OF_PERICENTER": 108.3488, "MEAN_ANOMALY": 253.2126, "EPHEMERIS_TYPE": 0, "CLASSIFICATION_TYPE": "U", "NORAD_CAT_ID": 37474, "ELEMENT_SET_NO": 999, "REV_AT_EPOCH": 62502, "BSTAR": 0.00092646211, "MEAN_MOTION_DOT": 7.16e-05, "MEAN_MOTION_DDOT": 0}, "tle": {"line1": "1 37474U 99025EJU 25355.32544077  .00007160  00000+0  92646-3 0  9995", "line2": "2 37474  99.1647 201.6138 0132005 108.3488 253.2126 14.75262893625020"}}, "geometry": {"type": "Point", "coordinates": [-169.2568890693532, 51.17458057776123]}}, {"type": "Feature", "properties": {"norad_id": 37477, "name": "FENGYUN 1C DEB", "group": "fengyun-1c-debris", "lat": -56.46906407144818, "lon": 167.1457110642566, "alt_km": 857.9680205879604, "timestamp": "2025-12-21T22:41:41.749328+00:00", "meta": {"OBJECT_NAME": "FENGYUN 1C DEB", "OBJECT_ID": "1999-025EJX", "EPOCH": "2025-12-16T18:06:36.022176", "MEAN_MOTION": 14.19731482, "ECCENTRICITY": 0.00371355, "INCLINATION": 98.6057, "RA_OF_ASC_NODE": 355.3103, "ARG_OF_PERICENTER": 94.8392, "MEAN_ANOMALY": 265.7026, "EPHEMERIS_TYPE": 0, "CLASSIFICATION_TYPE": "U", "NORAD_CAT_ID": 37477, "ELEMENT_SET_NO": 999, "REV_AT_EPOCH": 81971, "BSTAR": 0.00055952668, "MEAN_MOTION_DOT": 1.15e-05, "MEAN_MOTION_DDOT": 0}, "tle": {"line1": "1 37477U 99025EJX 25350.75458359  .00001150  00000+0  55953-3 0  9990", "line2": "2 37477  98.6057 355.3103 0037135  94.8392 265.7026 14.19731482819713"}}, "geometry": {"type": "Point", "coordinates": [167.1457110642566, -56.46906407144818]}}]}